{
  "norad_id": 58237,
  "name": "STARLINK-30866",
  "history": [
    {
      "epoch": "2026-03-28T07:15:41.381856",
      "apogee_km": 486.2012228702197,
      "perigee_km": 484.96300794179933,
      "latitude_deg": 26.371619102291135,
      "longitude_deg": 32.7459798399359,
      "semi_major_axis_km": 6863.719115406009,
      "eccentricity": 9.02e-05,
      "inclination_deg": 42.9947,
      "raan_deg": 179.8856,
      "arg_perigee_deg": 157.096,
      "mean_anomaly_deg": 202.9932,
      "mean_motion_rev_day": 15.2673446
    },
    {
      "epoch": "2026-03-29T05:14:34.655424",
      "apogee_km": 486.8916196283917,
      "perigee_km": 484.05557572943053,
      "latitude_deg": 16.48087757093807,
      "longitude_deg": 120.67183936014771,
      "semi_major_axis_km": 6863.61059767891,
      "eccentricity": 0.0002066,
      "inclination_deg": 43.0007,
      "raan_deg": 174.7197,
      "arg_perigee_deg": 168.1998,
      "mean_anomaly_deg": 191.8902,
      "mean_motion_rev_day": 15.26770668
    }
  ]
}